[{"OBJECT_NAME":"STARLINK-11676 [DTC]","OBJECT_ID":"2025-089G","EPOCH":"2025-08-16T08:05:39.209568","MEAN_MOTION":15.71081808,"ECCENTRICITY":0.0003739,"INCLINATION":43.0004,"RA_OF_ASC_NODE":89.616,"ARG_OF_PERICENTER":53.5726,"MEAN_ANOMALY":306.5486,"EPHEMERIS_TYPE":0,"CLASSIFICATION_TYPE":"U","NORAD_CAT_ID":63757,"ELEMENT_SET_NO":999,"REV_AT_EPOCH":1773,"BSTAR":0.0015289,"MEAN_MOTION_DOT":0.00202675,"MEAN_MOTION_DDOT":0},{"OBJECT_NAME":"STARLINK-11705 [DTC]","OBJECT_ID":"2025-089H","EPOCH":"2025-08-16T07:35:13.711488","MEAN_MOTION":15.70886016,"ECCENTRICITY":6.74e-5,"INCLINATION":42.9989,"RA_OF_ASC_NODE":90.3414,"ARG_OF_PERICENTER":299.1806,"MEAN_ANOMALY":60.8994,"EPHEMERIS_TYPE":0,"CLASSIFICATION_TYPE":"U","NORAD_CAT_ID":63758,"ELEMENT_SET_NO":999,"REV_AT_EPOCH":1778,"BSTAR":0.0015751,"MEAN_MOTION_DOT":0.00207177,"MEAN_MOTION_DDOT":0},{"OBJECT_NAME":"STARLINK-11703 [DTC]","OBJECT_ID":"2025-089J","EPOCH":"2025-08-15T23:26:50.085312","MEAN_MOTION":15.70932254,"ECCENTRICITY":0.0003291,"INCLINATION":42.9975,"RA_OF_ASC_NODE":92.0853,"ARG_OF_PERICENTER":269.3853,"MEAN_ANOMALY":90.6638,"EPHEMERIS_TYPE":0,"CLASSIFICATION_TYPE":"U","NORAD_CAT_ID":63759,"ELEMENT_SET_NO":999,"REV_AT_EPOCH":1778,"BSTAR":0.0015067,"MEAN_MOTION_DOT":0.00198358,"MEAN_MOTION_DDOT":0},{"OBJECT_NAME":"STARLINK-11701 [DTC]","OBJECT_ID":"2025-089K","EPOCH":"2025-08-16T08:13:16.693248","MEAN_MOTION":15.70867915,"ECCENTRICITY":6.4e-5,"INCLINATION":42.9986,"RA_OF_ASC_NODE":89.6579,"ARG_OF_PERICENTER":44.4882,"MEAN_ANOMALY":315.6037,"EPHEMERIS_TYPE":0,"CLASSIFICATION_TYPE":"U","NORAD_CAT_ID":63760,"ELEMENT_SET_NO":999,"REV_AT_EPOCH":1784,"BSTAR":0.0014166,"MEAN_MOTION_DOT":0.00185655,"MEAN_MOTION_DDOT":0},{"OBJECT_NAME":"STARLINK-11660 [DTC]","OBJECT_ID":"2025-089L","EPOCH":"2025-08-15T21:47:38.040288","MEAN_MOTION":15.70875709,"ECCENTRICITY":0.0002509,"INCLINATION":43.0012,"RA_OF_ASC_NODE":92.4258,"ARG_OF_PERICENTER":264.248,"MEAN_ANOMALY":95.8102,"EPHEMERIS_TYPE":0,"CLASSIFICATION_TYPE":"U","NORAD_CAT_ID":63761,"ELEMENT_SET_NO":999,"REV_AT_EPOCH":1772,"BSTAR":0.0012814,"MEAN_MOTION_DOT":0.00167589,"MEAN_MOTION_DDOT":0},{"OBJECT_NAME":"STARLINK-11699 [DTC]","OBJECT_ID":"2025-089M","EPOCH":"2025-08-16T07:58:10.108416","MEAN_MOTION":15.70876405,"ECCENTRICITY":6.11e-5,"INCLINATION":43.0004,"RA_OF_ASC_NODE":90.4688,"ARG_OF_PERICENTER":324.8754,"MEAN_ANOMALY":35.2073,"EPHEMERIS_TYPE":0,"CLASSIFICATION_TYPE":"U","NORAD_CAT_ID":63762,"ELEMENT_SET_NO":999,"REV_AT_EPOCH":1783,"BSTAR":0.0015093,"MEAN_MOTION_DOT":0.00198207,"MEAN_MOTION_DDOT":0},{"OBJECT_NAME":"STARLINK-11693 [DTC]","OBJECT_ID":"2025-089N","EPOCH":"2025-08-15T23:28:09.078240","MEAN_MOTION":15.7089374,"ECCENTRICITY":0.0002474,"INCLINATION":43.0019,"RA_OF_ASC_NODE":92.0935,"ARG_OF_PERICENTER":269.5777,"MEAN_ANOMALY":90.4807,"EPHEMERIS_TYPE":0,"CLASSIFICATION_TYPE":"U","NORAD_CAT_ID":63763,"ELEMENT_SET_NO":999,"REV_AT_EPOCH":1767,"BSTAR":0.0013967,"MEAN_MOTION_DOT":0.00183193,"MEAN_MOTION_DDOT":0},{"OBJECT_NAME":"STARLINK-33760","OBJECT_ID":"2025-089P","EPOCH":"2025-08-16T02:21:27.933408","MEAN_MOTION":15.27550942,"ECCENTRICITY":0.0001472,"INCLINATION":42.9959,"RA_OF_ASC_NODE":126.4285,"ARG_OF_PERICENTER":261.0563,"MEAN_ANOMALY":99.0122,"EPHEMERIS_TYPE":0,"CLASSIFICATION_TYPE":"U","NORAD_CAT_ID":63764,"ELEMENT_SET_NO":999,"REV_AT_EPOCH":1751,"BSTAR":0.00085324,"MEAN_MOTION_DOT":0.00023271,"MEAN_MOTION_DDOT":0},{"OBJECT_NAME":"STARLINK-33941","OBJECT_ID":"2025-089Q","EPOCH":"2025-08-16T02:25:09.318720","MEAN_MOTION":15.27581346,"ECCENTRICITY":0.0001033,"INCLINATION":42.9992,"RA_OF_ASC_NODE":126.4454,"ARG_OF_PERICENTER":272.3644,"MEAN_ANOMALY":87.7089,"EPHEMERIS_TYPE":0,"CLASSIFICATION_TYPE":"U","NORAD_CAT_ID":63765,"ELEMENT_SET_NO":999,"REV_AT_EPOCH":1750,"BSTAR":0.0010164,"MEAN_MOTION_DOT":0.00027814,"MEAN_MOTION_DDOT":0},{"OBJECT_NAME":"STARLINK-33824","OBJECT_ID":"2025-089R","EPOCH":"2025-08-15T23:40:53.338080","MEAN_MOTION":15.27579258,"ECCENTRICITY":0.0001356,"INCLINATION":43.0007,"RA_OF_ASC_NODE":127.3128,"ARG_OF_PERICENTER":268.1606,"MEAN_ANOMALY":91.909,"EPHEMERIS_TYPE":0,"CLASSIFICATION_TYPE":"U","NORAD_CAT_ID":63766,"ELEMENT_SET_NO":999,"REV_AT_EPOCH":1749,"BSTAR":0.00084658,"MEAN_MOTION_DOT":0.00023106,"MEAN_MOTION_DDOT":0},{"OBJECT_NAME":"STARLINK-33808","OBJECT_ID":"2025-089S","EPOCH":"2025-08-16T09:59:16.739808","MEAN_MOTION":15.27579832,"ECCENTRICITY":9.67e-5,"INCLINATION":42.998,"RA_OF_ASC_NODE":124.5069,"ARG_OF_PERICENTER":275.1322,"MEAN_ANOMALY":84.9419,"EPHEMERIS_TYPE":0,"CLASSIFICATION_TYPE":"U","NORAD_CAT_ID":63767,"ELEMENT_SET_NO":999,"REV_AT_EPOCH":1756,"BSTAR":0.00044135,"MEAN_MOTION_DOT":0.00011903,"MEAN_MOTION_DDOT":0},{"OBJECT_NAME":"STARLINK-33844","OBJECT_ID":"2025-089T","EPOCH":"2025-08-16T09:31:30.717984","MEAN_MOTION":15.2764395,"ECCENTRICITY":0.0002697,"INCLINATION":42.999,"RA_OF_ASC_NODE":124.363,"ARG_OF_PERICENTER":276.6684,"MEAN_ANOMALY":83.3861,"EPHEMERIS_TYPE":0,"CLASSIFICATION_TYPE":"U","NORAD_CAT_ID":63768,"ELEMENT_SET_NO":999,"REV_AT_EPOCH":1756,"BSTAR":0.0027227,"MEAN_MOTION_DOT":0.00075583,"MEAN_MOTION_DDOT":0},{"OBJECT_NAME":"STARLINK-33907","OBJECT_ID":"2025-089U","EPOCH":"2025-08-16T10:06:40.974048","MEAN_MOTION":15.27575454,"ECCENTRICITY":0.0001579,"INCLINATION":42.9974,"RA_OF_ASC_NODE":124.5486,"ARG_OF_PERICENTER":272.7559,"MEAN_ANOMALY":87.3112,"EPHEMERIS_TYPE":0,"CLASSIFICATION_TYPE":"U","NORAD_CAT_ID":63769,"ELEMENT_SET_NO":999,"REV_AT_EPOCH":1751,"BSTAR":0.00040874,"MEAN_MOTION_DOT":0.00011001,"MEAN_MOTION_DDOT":0},{"OBJECT_NAME":"STARLINK-33884","OBJECT_ID":"2025-089V","EPOCH":"2025-08-16T03:16:44.635008","MEAN_MOTION":15.27579332,"ECCENTRICITY":0.0001363,"INCLINATION":42.9961,"RA_OF_ASC_NODE":125.8491,"ARG_OF_PERICENTER":276.6866,"MEAN_ANOMALY":83.3831,"EPHEMERIS_TYPE":0,"CLASSIFICATION_TYPE":"U","NORAD_CAT_ID":63770,"ELEMENT_SET_NO":999,"REV_AT_EPOCH":1747,"BSTAR":0.00086128,"MEAN_MOTION_DOT":0.00023514,"MEAN_MOTION_DDOT":0},{"OBJECT_NAME":"STARLINK-33841","OBJECT_ID":"2025-089W","EPOCH":"2025-08-16T09:44:28.620384","MEAN_MOTION":15.27577539,"ECCENTRICITY":8.68e-5,"INCLINATION":42.9981,"RA_OF_ASC_NODE":124.4252,"ARG_OF_PERICENTER":295.1599,"MEAN_ANOMALY":64.9162,"EPHEMERIS_TYPE":0,"CLASSIFICATION_TYPE":"U","NORAD_CAT_ID":63771,"ELEMENT_SET_NO":999,"REV_AT_EPOCH":1750,"BSTAR":0.00073,"MEAN_MOTION_DOT":0.00019879,"MEAN_MOTION_DDOT":0},{"OBJECT_NAME":"STARLINK-33769","OBJECT_ID":"2025-089X","EPOCH":"2025-08-16T00:04:43.972608","MEAN_MOTION":15.2758388,"ECCENTRICITY":0.0001375,"INCLINATION":42.9988,"RA_OF_ASC_NODE":126.5651,"ARG_OF_PERICENTER":264.7104,"MEAN_ANOMALY":95.359,"EPHEMERIS_TYPE":0,"CLASSIFICATION_TYPE":"U","NORAD_CAT_ID":63773,"ELEMENT_SET_NO":999,"REV_AT_EPOCH":1749,"BSTAR":0.0011696,"MEAN_MOTION_DOT":0.00032067,"MEAN_MOTION_DDOT":0}]
