STARLINK-11676 [DTC]    
1 63757U 25089G   25228.33725937  .00202675  00000+0  15289-2 0  9998
2 63757  43.0004  89.6160 0003739  53.5726 306.5486 15.71081808 17730
STARLINK-11705 [DTC]    
1 63758U 25089H   25228.31613092  .00207177  00000+0  15751-2 0  9991
2 63758  42.9989  90.3414 0000674 299.1806  60.8994 15.70886016 17786
STARLINK-11703 [DTC]    
1 63759U 25089J   25227.97696858  .00198358  00000+0  15067-2 0  9994
2 63759  42.9975  92.0853 0003291 269.3853  90.6638 15.70932254 17789
STARLINK-11701 [DTC]    
1 63760U 25089K   25228.34255432  .00185655  00000+0  14166-2 0  9992
2 63760  42.9986  89.6579 0000640  44.4882 315.6037 15.70867915 17840
STARLINK-11660 [DTC]    
1 63761U 25089L   25227.90807917  .00167589  00000+0  12814-2 0  9999
2 63761  43.0012  92.4258 0002509 264.2480  95.8102 15.70875709 17728
STARLINK-11699 [DTC]    
1 63762U 25089M   25228.33206144  .00198207  00000+0  15093-2 0  9996
2 63762  43.0004  90.4688 0000611 324.8754  35.2073 15.70876405 17835
STARLINK-11693 [DTC]    
1 63763U 25089N   25227.97788285  .00183193  00000+0  13967-2 0  9993
2 63763  43.0019  92.0935 0002474 269.5777  90.4807 15.70893740 17675
STARLINK-33760          
1 63764U 25089P   25228.09823997  .00023271  00000+0  85324-3 0  9995
2 63764  42.9959 126.4285 0001472 261.0563  99.0122 15.27550942 17518
STARLINK-33941          
1 63765U 25089Q   25228.10080230  .00027814  00000+0  10164-2 0  9999
2 63765  42.9992 126.4454 0001033 272.3644  87.7089 15.27581346 17509
STARLINK-33824          
1 63766U 25089R   25227.98672845  .00023106  00000+0  84658-3 0  9994
2 63766  43.0007 127.3128 0001356 268.1606  91.9090 15.27579258 17492
STARLINK-33808          
1 63767U 25089S   25228.41616597  .00011903  00000+0  44135-3 0  9994
2 63767  42.9980 124.5069 0000967 275.1322  84.9419 15.27579832 17567
STARLINK-33844          
1 63768U 25089T   25228.39688331  .00075583  00000+0  27227-2 0  9993
2 63768  42.9990 124.3630 0002697 276.6684  83.3861 15.27643950 17567
STARLINK-33907          
1 63769U 25089U   25228.42130757  .00011001  00000+0  40874-3 0  9991
2 63769  42.9974 124.5486 0001579 272.7559  87.3112 15.27575454 17518
STARLINK-33884          
1 63770U 25089V   25228.13662772  .00023514  00000+0  86128-3 0  9992
2 63770  42.9961 125.8491 0001363 276.6866  83.3831 15.27579332 17479
STARLINK-33841          
1 63771U 25089W   25228.40588681  .00019879  00000+0  73000-3 0  9993
2 63771  42.9981 124.4252 0000868 295.1599  64.9162 15.27577539 17503
STARLINK-33769          
1 63773U 25089X   25228.00328672  .00032067  00000+0  11696-2 0  9999
2 63773  42.9988 126.5651 0001375 264.7104  95.3590 15.27583880 17493
